NORAD_CAT_ID,OBJECT_NAME,OBJECT_TYPE,EPOCH,MEAN_MOTION,ECCENTRICITY,INCLINATION,RA_OF_ASC_NODE,ARG_OF_PERICENTER,MEAN_ANOMALY,BSTAR,MEAN_MOTION_DOT,MEAN_MOTION_DDOT,TLE_LINE0,TLE_LINE1,TLE_LINE2,SEMIMAJOR_AXIS,PERIOD,APOGEE,PERIGEE,DECAYED
52617.0,STARLINK-3996,PAYLOAD,2022-05-29 12:00:00,15.73204567,0.0001114,53.2145,7.0357,115.4502,352.2104,-0.00046835,-0.00065848,0.0,0 STARLINK-3996,1 52617U 22052V   22149.50001157 -.00065848  00000-0 -46835-3 0  9991,2 52617  53.2145   7.0357 0001114 115.4502 352.2104 15.73204567  2694,6727.882,91.533,350.497,348.99800000000016,0.0
52617.0,STARLINK-3996,PAYLOAD,2022-05-29 14:00:01,15.73195419,0.0001151,53.2147,6.6232,116.1401,103.7516,-0.000488,-0.00068537,0.0,0 STARLINK-3996,1 52617U 22052V   22149.58334491 -.00068537  00000-0 -48800-3 0  9991,2 52617  53.2147   6.6232 0001151 116.1401 103.7516 15.73195419  1308,6727.908,91.533,350.548,348.999,0.0
52617.0,STARLINK-3996,PAYLOAD,2022-05-29 20:41:34,15.73202103,9.24e-05,53.2145,5.2439,107.1719,252.9403,2.616e-05,3.054e-05,0.0,0 STARLINK-3996,1 52617U 22052V   22149.86220341  .00003054  00000-0  26160-4 0  9997,2 52617  53.2145   5.2439 0000924 107.1719 252.9403 15.73202103  2378,6727.889,91.533,350.376,349.1330000000001,0.0
52617.0,STARLINK-3996,PAYLOAD,2022-05-30 04:00:00,15.73077747,8.98e-05,53.2141,3.7384,102.0654,183.3588,0.0009633,0.00136068,0.0,0 STARLINK-3996,1 52617U 22052V   22150.16667824  .00136068  00000-0  96330-3 0  9990,2 52617  53.2141   3.7384 0000898 102.0654 183.3588 15.73077747  2799,6728.244000000002,91.54,350.713,349.505,0.0
52617.0,STARLINK-3996,PAYLOAD,2022-05-30 14:00:01,15.73192041,0.000118,53.2144,1.6751,114.6293,11.8392,0.00050319,0.0007057,0.0,0 STARLINK-3996,1 52617U 22052V   22150.58334491  .00070570  00000-0  50319-3 0  9999,2 52617  53.2144   1.6751 0001180 114.6293  11.8392 15.73192041  1309,6727.918000000002,91.534,350.577,348.98900000000015,0.0
52617.0,STARLINK-3996,PAYLOAD,2022-05-30 20:00:01,15.73265849,0.0001126,53.214,0.4396,102.3316,0.8419,-0.00047778,-0.00067326,0.0,0 STARLINK-3996,1 52617U 22052V   22150.83334491 -.00067326  00000-0 -47778-3 0  9999,2 52617  53.2140   0.4396 0001126 102.3316   0.8419 15.73265849  2909,6727.706999999999,91.529,350.33,348.815,0.0
52617.0,STARLINK-3996,PAYLOAD,2022-05-30 22:00:00,15.73249447,0.0001149,53.2142,0.0276,98.9633,116.4601,-0.00032838,-0.00046548,0.0,0 STARLINK-3996,1 52617U 22052V   22150.91667824 -.00046548  00000-0 -32838-3 0  9991,2 52617  53.2142   0.0276 0001149  98.9633 116.4601 15.73249447  1307,6727.754,91.53,350.392,348.846,0.0
52617.0,STARLINK-3996,PAYLOAD,2022-05-31 06:00:02,15.73214884,0.0001218,53.2142,358.3766,102.7662,201.6672,5.431600000000001e-05,7.014e-05,0.0,0 STARLINK-3996,1 52617U 22052V   22151.25002315  .00007014  00000-0  54316-4 0  9996,2 52617  53.2142 358.3766 0001218 102.7662 201.6672 15.73214884  1305,6727.853,91.532,350.537,348.898,0.0
52617.0,STARLINK-3996,PAYLOAD,2022-05-31 12:00:00,15.73220482,0.0001353,53.2144,357.1381,107.9769,173.0942,-0.00016369,-0.00023549,0.0,0 STARLINK-3996,1 52617U 22052V   22151.50001157 -.00023549  00000-0 -16369-3 0  9995,2 52617  53.2144 357.1381 0001353 107.9769 173.0942 15.73220482  3004,6727.837,91.532,350.612,348.792,0.0
52617.0,STARLINK-3996,PAYLOAD,2022-05-31 19:57:29,15.73221901,0.0001093,53.2147,355.4973,108.0834,252.0305,0.00010712,0.00014453,0.0,0 STARLINK-3996,1 52617U 22052V   22151.83159556  .00014453  00000-0  10712-3 0  9996,2 52617  53.2147 355.4973 0001093 108.0834 252.0305 15.73221901  3054,6727.833000000001,91.532,350.43300000000005,348.962,0.0
52617.0,STARLINK-3996,PAYLOAD,2022-05-31 22:00:00,15.73193986,0.0001424,53.2146,355.0784,94.3958,27.8846,0.00044839,0.00062764,0.0,0 STARLINK-3996,1 52617U 22052V   22151.91667824  .00062764  00000-0  44839-3 0  9992,2 52617  53.2146 355.0784 0001424  94.3958  27.8846 15.73193986  1306,6727.9119999999975,91.534,350.735,348.819,0.0
52617.0,STARLINK-3996,PAYLOAD,2022-06-01 20:00:01,15.732027100000002,0.0001254,53.2141,350.5415,95.9296,181.0331,-8.5771e-05,-0.0001264,0.0,0 STARLINK-3996,1 52617U 22052V   22152.83334491 -.00012640  00000-0 -85771-4 0  9996,2 52617  53.2141 350.5415 0001254  95.9296 181.0331 15.73202710  3215,6727.887,91.533,350.596,348.909,0.0
52617.0,STARLINK-3996,PAYLOAD,2022-06-02 19:13:21,15.73202925,0.0001135,53.2149,345.7513,97.7102,262.4047,-3.1921e-05,-5.097e-05,0.0,0 STARLINK-3996,1 52617U 22052V   22153.80094651 -.00005097  00000-0 -31921-4 0  9991,2 52617  53.2149 345.7513 0001135  97.7102 262.4047 15.73202925  2992,6727.887,91.533,350.515,348.98800000000006,0.0
52617.0,STARLINK-3996,PAYLOAD,2022-06-02 23:47:48,15.7320851,9.78e-05,53.2145,344.8073,103.0324,257.0805,-6.6985e-06,-1.56e-05,0.0,0 STARLINK-3996,1 52617U 22052V   22153.99152837 -.00001560  00000-0 -66985-5 0  9992,2 52617  53.2145 344.8073 0000978 103.0324 257.0805 15.73208510  3393,6727.871,91.533,350.394,349.07800000000015,0.0
52617.0,STARLINK-3996,PAYLOAD,2022-06-03 05:53:43,15.73217301,0.0001111,53.2139,343.5502,102.5449,257.5696,2.4677e-05,2.847e-05,0.0,0 STARLINK-3996,1 52617U 22052V   22154.24563685  .00002847  00000-0  24677-4 0  9996,2 52617  53.2139 343.5502 0001111 102.5449 257.5696 15.73217301  3437,6727.846,91.532,350.458,348.963,0.0
52617.0,STARLINK-3996,PAYLOAD,2022-06-03 13:31:06,15.73232708,9.25e-05,53.2141,341.9788,98.617,261.4955,6.534399999999999e-05,8.573e-05,0.0,0 STARLINK-3996,1 52617U 22052V   22154.56326870  .00008573  00000-0  65344-4 0  9992,2 52617  53.2141 341.9788 0000925  98.6170 261.4955 15.73232708  3111,6727.802,91.531,350.289,349.045,0.0
52617.0,STARLINK-3996,PAYLOAD,2022-06-03 21:08:30,15.73227163,9.53e-05,53.2139,340.4075,92.9315,267.1814,5.3197e-05,6.861e-05,0.0,0 STARLINK-3996,1 52617U 22052V   22154.88090751  .00006861  00000-0  53197-4 0  9994,2 52617  53.2139 340.4075 0000953  92.9315 267.1814 15.73227163  3161,6727.818,91.532,350.324,349.042,0.0
52617.0,STARLINK-3996,PAYLOAD,2022-06-04 12:23:18,15.73213709,0.0001199,53.2143,337.2630000000001,99.207,260.9086,8.7577e-06,6.1e-06,0.0,0 STARLINK-3996,1 52617U 22052V   22155.51618731  .00000610  00000-0  87577-5 0  9995,2 52617  53.2143 337.2630 0001199  99.2070 260.9086 15.73213709  3633,6727.856,91.532,350.528,348.914,0.0
52617.0,STARLINK-3996,PAYLOAD,2022-06-05 20:00:01,15.73169923,0.0001252,53.2144,330.7469,78.3636,185.8544,0.000345,0.00048013,0.0,0 STARLINK-3996,1 52617U 22052V   22156.83334491  .00048013  00000-0  34500-3 0  9994,2 52617  53.2144 330.7469 0001252  78.3636 185.8544 15.73169923  3843,6727.981,91.535,350.68800000000016,349.004,0.0
52617.0,STARLINK-3996,PAYLOAD,2022-06-05 22:00:00,15.73161806,0.0001218,53.2143,330.3347,77.482,298.9656,0.00059709,0.0008388,0.0,0 STARLINK-3996,1 52617U 22052V   22156.91667824  .00083880  00000-0  59709-3 0  9991,2 52617  53.2143 330.3347 0001218  77.4820 298.9656 15.73161806  1301,6728.004,91.535,350.689,349.05,0.0
52617.0,STARLINK-3996,PAYLOAD,2022-06-06 12:00:02,15.73177797,9.78e-05,53.2146,327.4455,89.6004,352.5458,0.00022322,0.00030792,0.0,0 STARLINK-3996,1 52617U 22052V   22157.50002315  .00030792  00000-0  22322-3 0  9990,2 52617  53.2146 327.4455 0000978  89.6004 352.5458 15.73177797  3958,6727.958000000001,91.534,350.481,349.165,0.0
52617.0,STARLINK-3996,PAYLOAD,2022-06-06 14:00:01,15.731898499999998,9.46e-05,53.2147,327.0338,84.5734,109.7317,9.2488e-05,0.00012374,0.0,0 STARLINK-3996,1 52617U 22052V   22157.58334491  .00012374  00000-0  92488-4 0  9998,2 52617  53.2147 327.0338 0000946  84.5734 109.7317 15.73189850  1300,6727.924,91.534,350.426,349.153,0.0
52617.0,STARLINK-3996,PAYLOAD,2022-06-06 22:00:00,15.73211565,0.0001011,53.2145,325.386,66.2089,217.0292,5.2664e-05,6.781e-05,0.0,0 STARLINK-3996,1 52617U 22052V   22157.91667824  .00006781  00000-0  52664-4 0  9991,2 52617  53.2145 325.3860 0001011  66.2089 217.0292 15.73211565  1307,6727.861999999999,91.533,350.407,349.047,0.0
52617.0,STARLINK-3996,PAYLOAD,2022-06-07 12:00:00,15.73217403,0.0001031,53.2143,322.4973,79.7724,269.0908,-5.1457e-05,-7.840000000000001e-05,0.0,0 STARLINK-3996,1 52617U 22052V   22158.50001157 -.00007840  00000-0 -51457-4 0  9996,2 52617  53.2143 322.4973 0001031  79.7724 269.0908 15.73217403  4104,6727.846,91.532,350.404,349.017,0.0
52617.0,STARLINK-3996,PAYLOAD,2022-06-07 14:00:01,15.73247024,0.0001027,53.2142,322.0856,75.6727,25.4194,-0.00059688,-0.00083724,0.0,0 STARLINK-3996,1 52617U 22052V   22158.58334491 -.00083724  00000-0 -59688-3 0  9992,2 52617  53.2142 322.0856 0001027  75.6727  25.4194 15.73247024  1304,6727.761,91.53,350.31699999999995,348.935,0.0
52617.0,STARLINK-3996,PAYLOAD,2022-06-07 22:00:00,15.73163724,8.46e-05,53.2136,320.4375,53.1614,136.9141,0.00055248,0.00077514,0.0,0 STARLINK-3996,1 52617U 22052V   22158.91667824  .00077514  00000-0  55248-3 0  9994,2 52617  53.2136 320.4375 0000846  53.1614 136.9141 15.73163724  1303,6727.999,91.535,350.43300000000005,349.2940000000001,0.0
52617.0,STARLINK-3996,PAYLOAD,2022-06-08 14:00:01,15.73208572,0.000116,53.214,317.1367,73.2888,294.6194,-6.5399e-05,-9.791e-05,0.0,0 STARLINK-3996,1 52617U 22052V   22159.58334491 -.00009791  00000-0 -65399-4 0  9992,2 52617  53.2140 317.1367 0001160  73.2888 294.6194 15.73208572  1309,6727.871,91.533,350.516,348.955,0.0
52617.0,STARLINK-3996,PAYLOAD,2022-06-08 20:00:01,15.73204216,0.0001254,53.2139,315.9009,61.3729,283.2341,-4.9626e-06,-1.316e-05,0.0,0 STARLINK-3996,1 52617U 22052V   22159.83334491 -.00001316  00000-0 -49626-5 0  9991,2 52617  53.2139 315.9009 0001254  61.3729 283.2341 15.73204216  4315,6727.8830000000025,91.533,350.592,348.904,0.0
52617.0,STARLINK-3996,PAYLOAD,2022-06-08 22:00:01,15.73210224,0.0001264999999999,53.2136,315.4884,59.5225,37.3824,-0.0001237,-0.00017951,0.0,0 STARLINK-3996,1 52617U 22052V   22159.91668981 -.00017951  00000-0 -12370-3 0  9990,2 52617  53.2136 315.4884 0001265  59.5225  37.3824 15.73210224  1306,6727.866,91.533,350.582,348.88,0.0
